NORAD_CAT_ID,OBJECT_NAME,OBJECT_TYPE,EPOCH,MEAN_MOTION,ECCENTRICITY,INCLINATION,RA_OF_ASC_NODE,ARG_OF_PERICENTER,MEAN_ANOMALY,BSTAR,MEAN_MOTION_DOT,MEAN_MOTION_DDOT,TLE_LINE0,TLE_LINE1,TLE_LINE2,SEMIMAJOR_AXIS,PERIOD,APOGEE,PERIGEE,DECAYED
52684.0,STARLINK-4014,PAYLOAD,2024-03-12 13:37:14,15.08838965,0.0001269,53.2172,168.3015,89.4028,270.7109,6.248e-05,7.07e-06,0.0,0 STARLINK-4014,1 52684U 22053AE  24072.56752645  .00000707  00000-0  62480-4 0  9990,2 52684  53.2172 168.3015 0001269  89.4028 270.7109 15.08838965101360,6917.884,95.438,540.626,538.871,0.0
52684.0,STARLINK-4014,PAYLOAD,2024-03-13 11:52:38,15.08844713,0.0001215,53.2157,164.1369,85.4507,274.6623,0.00017563,2.509e-05,0.0,0 STARLINK-4014,1 52684U 22053AE  24073.49488432  .00002509  00000-0  17563-3 0  9996,2 52684  53.2157 164.1369 0001215  85.4507 274.6623 15.08844713101506,6917.866,95.437,540.572,538.89,0.0
52684.0,STARLINK-4014,PAYLOAD,2024-03-13 15:03:24,15.08847271,0.0001197,53.2155,163.5419,83.1614,276.9514,0.00020397,2.96e-05,0.0,0 STARLINK-4014,1 52684U 22053AE  24073.62736289  .00002960  00000-0  20397-3 0  9997,2 52684  53.2155 163.5419 0001197  83.1614 276.9514 15.08847271101142,6917.858,95.437,540.551,538.895,0.0
52684.0,STARLINK-4014,PAYLOAD,2024-03-14 05:21:52,15.08836137,0.00013,53.2148,160.8655,83.2004,276.9136,0.00034664,5.233e-05,0.0,0 STARLINK-4014,1 52684U 22053AE  24074.22352691  .00005233  00000-0  34664-3 0  9993,2 52684  53.2148 160.8655 0001300  83.2004 276.9136 15.08836137101235,6917.892,95.438,540.657,538.858,0.0
52684.0,STARLINK-4014,PAYLOAD,2024-03-14 11:43:25,15.08843349,0.0001222,53.2145,159.675,81.2457,278.8673,9.1686e-05,1.172e-05,0.0,0 STARLINK-4014,1 52684U 22053AE  24074.48848396  .00001172  00000-0  91686-4 0  9999,2 52684  53.2145 159.6750 0001222  81.2457 278.8673 15.08843349101653,6917.87,95.437,540.581,538.89,0.0
52684.0,STARLINK-4014,PAYLOAD,2024-03-15 11:34:12,15.08842049,0.0001398,53.2155,155.2136,86.1047,274.0105,4.893e-05,4.91e-06,0.0,0 STARLINK-4014,1 52684U 22053AE  24075.48208361  .00000491  00000-0  48930-4 0  9999,2 52684  53.2155 155.2136 0001398  86.1047 274.0105 15.08842049101426,6917.874,95.437,540.706,538.772,0.0
52684.0,STARLINK-4014,PAYLOAD,2024-03-16 14:35:45,15.08838488,0.0001409,53.217,150.1593,88.3338,271.7816,2.0839e-05,4.4e-07,0.0,0 STARLINK-4014,1 52684U 22053AE  24076.60816813  .00000044  00000-0  20839-4 0  9993,2 52684  53.2170 150.1593 0001409  88.3338 271.7816 15.08838488101979,6917.885,95.438,540.725,538.775,0.0
52684.0,STARLINK-4014,PAYLOAD,2024-03-17 11:15:46,15.08837023,0.0001415,53.217,146.2942,90.155,269.9604,7.3518e-05,8.82e-06,0.0,0 STARLINK-4014,1 52684U 22053AE  24077.46928849  .00000882  00000-0  73518-4 0  9993,2 52684  53.2170 146.2942 0001415  90.1550 269.9604 15.08837023102101,6917.889,95.438,540.733,538.776,0.0
52684.0,STARLINK-4014,PAYLOAD,2024-03-18 04:45:01,15.0883241,0.0001429,53.2173,143.0241,98.3116,261.8039,3.8142e-05,3.19e-06,0.0,0 STARLINK-4014,1 52684U 22053AE  24078.19793441  .00000319  00000-0  38142-4 0  9991,2 52684  53.2173 143.0241 0001429  98.3116 261.8039 15.08832410101831,6917.904,95.438,540.757,538.78,0.0
52684.0,STARLINK-4014,PAYLOAD,2024-03-18 09:31:11,15.08824828,0.0001499,53.2166,142.131,120.7157,239.3983,-2.8123e-05,-7.35e-06,0.0,0 STARLINK-4014,1 52684U 22053AE  24078.39666299 -.00000735  00000-0 -28123-4 0  9995,2 52684  53.2166 142.1310 0001499 120.7157 239.3983 15.08824828101867,6917.927,95.439,540.829,538.755,0.0
52684.0,STARLINK-4014,PAYLOAD,2024-03-19 09:21:57,15.08846964,0.0002048,53.2183,137.6749,124.4987,235.6199,0.00018307,2.627e-05,0.0,0 STARLINK-4014,1 52684U 22053AE  24079.39025286  .00002627  00000-0  18307-3 0  9993,2 52684  53.2183 137.6749 0002048 124.4987 235.6199 15.08846964102396,6917.859,95.437,541.141,538.307,0.0
52684.0,STARLINK-4014,PAYLOAD,2024-03-19 12:32:44,15.08848772,0.0001785,53.2183,137.0805,112.6747,247.4434,0.00019917,2.884e-05,0.0,0 STARLINK-4014,1 52684U 22053AE  24079.52273223  .00002884  00000-0  19917-3 0  9997,2 52684  53.2183 137.0805 0001785 112.6747 247.4434 15.08848772102036,6917.854,95.437,540.953,538.484,0.0
52684.0,STARLINK-4014,PAYLOAD,2024-03-20 10:48:08,15.08829095,0.0001524,53.2183,132.9156,109.1844,250.9313,0.00033162,4.992e-05,0.0,0 STARLINK-4014,1 52684U 22053AE  24080.45010023  .00004992  00000-0  33162-3 0  9998,2 52684  53.2183 132.9156 0001524 109.1844 250.9313 15.08829095102176,6917.914,95.438,540.833,538.724,0.0
52684.0,STARLINK-4014,PAYLOAD,2024-03-20 12:23:30,15.08847448,0.0002488,53.2166,132.6117,151.1594,208.9536,0.00030021,4.494e-05,0.0,0 STARLINK-4014,1 52684U 22053AE  24080.51632534  .00004494  00000-0  30021-3 0  9990,2 52684  53.2166 132.6117 0002488 151.1594 208.9536 15.08847448102565,6917.858,95.437,541.444,538.001,0.0
52684.0,STARLINK-4014,PAYLOAD,2024-03-21 12:14:18,15.08852451,0.0001231,53.2153,128.1546,106.6489,253.4638,-8.9904e-05,-1.719e-05,0.0,0 STARLINK-4014,1 52684U 22053AE  24081.50993070 -.00001719  00000-0 -89904-4 0  9999,2 52684  53.2153 128.1546 0001231 106.6489 253.4638 15.08852451102333,6917.842,95.437,540.559,538.856,0.0
52684.0,STARLINK-4014,PAYLOAD,2024-03-22 10:29:41,15.08853545,0.0001543,53.2167,123.9928,98.7564,261.3603,6.4375e-05,7.37e-06,0.0,0 STARLINK-4014,1 52684U 22053AE  24082.43728218  .00000737  00000-0  64375-4 0  9994,2 52684  53.2167 123.9928 0001543  98.7564 261.3603 15.08853545102858,6917.839,95.437,540.771,538.637,0.0
52684.0,STARLINK-4014,PAYLOAD,2024-03-23 02:23:33,15.088344,0.0001659,53.2171,121.019,93.9253,266.1929,7.1509e-05,8.5e-06,0.0,0 STARLINK-4014,1 52684U 22053AE  24083.09969152  .00000850  00000-0  71509-4 0  9994,2 52684  53.2171 121.0190 0001659  93.9253 266.1929 15.08834400102575,6917.898,95.438,540.91,538.615,0.0
52684.0,STARLINK-4014,PAYLOAD,2024-03-23 08:45:06,15.08829286,0.0001531,53.2165,119.8225,108.2945,251.8214,1.9936e-05,2.9e-07,0.0,0 STARLINK-4014,1 52684U 22053AE  24083.36465705  .00000029  00000-0  19936-4 0  9993,2 52684  53.2165 119.8225 0001531 108.2945 251.8214 15.08829286102618,6917.913,95.438,540.837,538.719,0.0
52684.0,STARLINK-4014,PAYLOAD,2024-03-23 19:52:48,15.08830688,0.0001537,53.2162,117.7406,121.4813,238.633,3.3352e-05,2.43e-06,0.0,0 STARLINK-4014,1 52684U 22053AE  24083.82833688  .00000243  00000-0  33352-4 0  9999,2 52684  53.2162 117.7406 0001537 121.4813 238.6330 15.08830688103060,6917.909,95.438,540.837,538.711,0.0
52684.0,STARLINK-4014,PAYLOAD,2024-03-24 08:35:51,15.08859018,0.000181,53.2169,115.3668,93.4031,266.7168,0.00010339,1.359e-05,0.0,0 STARLINK-4014,1 52684U 22053AE  24084.35823929  .00001359  00000-0  10339-3 0  9993,2 52684  53.2169 115.3668 0001810  93.4031 266.7168 15.08859018102760,6917.822,95.436,540.939,538.435,0.0
52684.0,STARLINK-4014,PAYLOAD,2024-03-25 05:15:57,15.08761869,9.66e-05,53.2166,111.5,82.1321,277.9781,-0.00083199,-0.00013476,0.0,0 STARLINK-4014,1 52684U 22053AE  24085.21941328 -.00013476  00000-0 -83199-3 0  9992,2 52684  53.2166 111.5000 0000966  82.1321 277.9781 15.08761869102898,6918.119,95.442,540.653,539.316,0.0
52684.0,STARLINK-4014,PAYLOAD,2024-03-25 11:37:28,15.08814366,0.0001493,53.2167,110.3087,99.6794,260.4366,-1.4536e-05,-5.19e-06,0.0,0 STARLINK-4014,1 52684U 22053AE  24085.48436045 -.00000519  00000-0 -14536-4 0  9990,2 52684  53.2167 110.3087 0001493  99.6794 260.4366 15.08814366102936,6917.959,95.439,540.857,538.791,0.0
52684.0,STARLINK-4014,PAYLOAD,2024-03-25 22:45:09,15.08837171,0.0001521,53.2168,108.2328,88.4092,271.7075,4.7747e-05,4.72e-06,0.0,0 STARLINK-4014,1 52684U 22053AE  24085.94803204  .00000472  00000-0  47747-4 0  9992,2 52684  53.2168 108.2328 0001521  88.4092 271.7075 15.08837171103381,6917.889,95.438,540.806,538.702,0.0
52684.0,STARLINK-4014,PAYLOAD,2024-03-26 05:06:42,15.08845723,0.000153,53.2162,107.0426,96.4258,263.6908,0.00019292,2.784e-05,0.0,0 STARLINK-4014,1 52684U 22053AE  24086.21298874  .00002784  00000-0  19292-3 0  9995,2 52684  53.2162 107.0426 0001530  96.4258 263.6908 15.08845723103044,6917.863,95.437,540.786,538.669,0.0
52684.0,STARLINK-4014,PAYLOAD,2024-03-26 08:17:28,15.08851056,0.0001538,53.2153,106.4482,92.2295,267.8873,0.00027827,4.145e-05,0.0,0 STARLINK-4014,1 52684U 22053AE  24086.34546729  .00004145  00000-0  27827-3 0  9990,2 52684  53.2153 106.4482 0001538  92.2295 267.8873 15.08851056103449,6917.847,95.437,540.776,538.648,0.0
52684.0,STARLINK-4014,PAYLOAD,2024-03-26 17:49:46,15.08856624,0.0001489,53.2161,104.6641,94.7029,265.4133,0.00054945,8.471e-05,0.0,0 STARLINK-4014,1 52684U 22053AE  24086.74290335  .00008471  00000-0  54945-3 0  9990,2 52684  53.2161 104.6641 0001489  94.7029 265.4133 15.08856624103508,6917.83,95.437,540.725,538.665,0.0
52684.0,STARLINK-4014,PAYLOAD,2024-03-27 04:57:29,15.08838138,0.0001683,53.2171,102.582,111.2547,248.8625,0.00061978,9.589e-05,0.0,0 STARLINK-4014,1 52684U 22053AE  24087.20659383  .00009589  00000-0  61978-3 0  9999,2 52684  53.2171 102.5820 0001683 111.2547 248.8625 15.08838138103197,6917.886,95.438,540.915,538.587,0.0
52684.0,STARLINK-4014,PAYLOAD,2024-03-27 09:43:38,15.08839976,0.0001241,53.2157,101.6864,94.6967,265.4167,0.00079803,0.00012435,0.0,0 STARLINK-4014,1 52684U 22053AE  24087.40531238  .00012435  00000-0  79803-3 0  9999,2 52684  53.2157 101.6864 0001241  94.6967 265.4167 15.08839976103602,6917.88,95.438,540.604,538.887,0.0
52684.0,STARLINK-4014,PAYLOAD,2024-03-27 17:40:34,15.08843611,0.0001593,53.2156,100.1998,80.5329,279.5843,0.00070237,0.00010909,0.0,0 STARLINK-4014,1 52684U 22053AE  24087.73651004  .00010909  00000-0  70237-3 0  9995,2 52684  53.2156 100.1998 0001593  80.5329 279.5843 15.08843611103652,6917.869,95.437,540.836,538.632,0.0
52684.0,STARLINK-4014,PAYLOAD,2024-03-28 09:34:22,15.08888554,0.0001434,53.2157,97.2252,92.5056,267.61,0.00050507,7.77e-05,0.0,0 STARLINK-4014,1 52684U 22053AE  24088.39887666  .00007770  00000-0  50507-3 0  9993,2 52684  53.2157  97.2252 0001434  92.5056 267.6100 15.08888554103374,6917.732,95.434,540.589,538.605,0.0
